IRIDIUM 155             
1 43573U 18061E   25312.78210166  .00000122  00000+0  36519-4 0  9994
2 43573  86.3970 148.8241 0001834  84.5952 275.5453 14.34217405381761
IRIDIUM 154             
1 43574U 18061F   25312.48400985  .00000006  00000+0 -48853-5 0  9999
2 43574  86.3979 149.0709 0001987  88.3204 271.8219 14.34217570381777
IRIDIUM 163             
1 43575U 18061G   25312.25567655  .00000029  00000+0  32051-5 0  9990
2 43575  86.3970 149.0890 0002179  84.5824 275.5621 14.34217539381717
IRIDIUM 156             
1 43576U 18061H   25312.78845315  .00000041  00000+0  76990-5 0  9995
2 43576  86.3971 148.8734 0001787  87.3876 272.7524 14.34217920381787
IRIDIUM 164             
1 43577U 18061J   25312.56012162 -.00000034  00000+0 -19051-4 0  9996
2 43577  86.3975 149.0053 0001931  93.9978 266.1439 14.34217069381793
IRIDIUM 159             
1 43578U 18061K   25312.45863876 -.00000043  00000+0 -22288-4 0  9997
2 43578  86.3977 148.9893 0002119  87.8554 272.2885 14.34217314381748
IRIDIUM 180             
1 43922U 19002A   25312.80697772  .00000180  00000+0  57322-4 0  9992
2 43922  86.3942  85.7272 0002188  89.4207 270.7239 14.34218582357401
IRIDIUM 176             
1 43923U 19002B   25312.46784503  .00001767  00000+0  27626-3 0  9999
2 43923  86.6071  85.8448 0001694  83.1525 276.9884 14.72255787366773
IRIDIUM 168             
1 43924U 19002C   25312.80063512  .00000122  00000+0  36565-4 0  9995
2 43924  86.3946  85.8011 0002096  91.4471 268.6965 14.34218472357380
IRIDIUM 173             
1 43925U 19002D   25312.78795014  .00000119  00000+0  35307-4 0  9991
2 43925  86.3941  85.7041 0002081  88.1992 271.9442 14.34218339357360
IRIDIUM 169             
1 43926U 19002E   25312.76045057  .00000181  00000+0  52741-4 0  9995
2 43926  86.4196 117.3666 0001524  53.6404 306.4934 14.38608995358530
IRIDIUM 172             
1 43927U 19002F   25312.78160693  .00000464  00000+0  15852-3 0  9997
2 43927  86.3935  85.7136 0002242  89.0133 271.1319 14.34217424357376
IRIDIUM 175             
1 43928U 19002G   25312.66696042  .00001327  00000+0  20649-3 0  9996
2 43928  86.1531  30.0854 0001911 112.8682 247.2736 14.72246634366793
IRIDIUM 171             
1 43929U 19002H   25312.83234760  .00000177  00000+0  56242-4 0  9992
2 43929  86.3955  85.9751 0001898  99.3946 260.7465 14.34218907357370
IRIDIUM 170             
1 43930U 19002J   25312.81385948  .00001712  00000+0  26752-3 0  9995
2 43930  86.6068  85.7037 0002260  90.7848 269.3628 14.72255915366834
IRIDIUM 167             
1 43931U 19002K   25312.82600380  .00000162  00000+0  50733-4 0  9992
2 43931  86.3942  85.7160 0001647  98.6243 261.5139 14.34218896357379
IRIDIUM 181             
1 56726U 23068S   25312.50034856  .00000424  00000+0  12003-3 0  9997
2 56726  86.4509 149.0268 0002281 101.3875 258.7582 14.43315309130608
IRIDIUM 177             
1 56727U 23068T   25312.80613633  .00002449  00000+0  31885-3 0  9995
2 56727  86.1961  73.4428 0002159  86.9976 273.1492 14.80223170133766
IRIDIUM 174             
1 56728U 23068U   25312.80150330  .00001939  00000+0  30362-3 0  9998
2 56728  86.6075  85.8340 0002401  84.7408 275.4083 14.72245560133594
IRIDIUM 178             
1 56729U 23068V   25312.72763500  .00000826  00000+0  10526-3 0  9993
2 56729  86.6506 117.5119 0001970  92.1345 268.0102 14.80231932133759
IRIDIUM 179             
1 56730U 23068W   25312.72225936  .00001401  00000+0  18101-3 0  9998
2 56730  86.6763 125.8333 0001817  96.9439 263.1990 14.80235333133752
